COSMOS 2361 [-]         
1 25590U 98076A   23002.91048451  .00000061  00000+0  49802-4 0  9993
2 25590  82.9339  58.7267 0031811  16.6448 162.8799 13.73038858203604
COSMOS 2378 [-]         
1 26818U 01023A   23002.67488647  .00000059  00000+0  46444-4 0  9997
2 26818  82.9278  76.5806 0032028 322.1072 202.5572 13.73982628 81592
COSMOS 2389 [-]         
1 27436U 02026A   23003.49658340  .00000069  00000+0  56187-4 0  9994
2 27436  82.9504  21.9715 0046513 175.8557 348.0747 13.74991635 33911
COSMOS 2398 [-]         
1 27818U 03023A   23002.72869803  .00000056  00000+0  44833-4 0  9990
2 27818  82.9487 344.7799 0030447 216.5249 317.0976 13.72226466980713
COSMOS 2407 [+]         
1 28380U 04028A   23003.27031146  .00000055  00000+0  40530-4 0  9992
2 28380  82.9612 288.4840 0039159 176.7731 337.6887 13.76131268926630
COSMOS 2414 [+]         
1 28521U 05002A   23003.48390097  .00000068  00000+0  44197-4 0  9995
2 28521  82.9500 276.9916 0039605 325.6128  34.2473 13.87677762909289
COSMOS 2429 [-]         
1 32052U 07038A   23002.83569688  .00000054  00000+0  40426-4 0  9998
2 32052  82.9802  55.4120 0039100 155.7487 204.5521 13.74979090768302
COSMOS 2454 [-]         
1 35635U 09039A   23003.49070623  .00000081  00000+0  53333-4 0  9991
2 35635  82.9563 262.9604 0017908 266.4839 266.7196 13.89706996682471
COSMOS 2463 [+]         
1 36519U 10017A   23003.33066530  .00000039  00000+0  26232-4 0  9997
2 36519  82.9609  96.0107 0036734  30.4609  31.2022 13.71488976635185
